ISS (ZARYA)             
1 25544U 98067A   26077.35508505  .00007746  00000+0  15190-3 0  9995
2 25544  51.6340  29.5200 0006240 204.1942 155.8754 15.48355497557679
POISK                   
1 36086U 09060A   26077.35508505  .00007746  00000+0  15190-3 0  9993
2 36086  51.6340  29.5200 0006240 204.1942 155.8754 15.48355497557436
CSS (TIANHE)            
1 48274U 21035A   26077.60901874  .00030981  00000+0  35872-3 0  9991
2 48274  41.4670 153.8729 0006034 328.4724  31.5753 15.61143380279001
ISS (NAUKA)             
1 49044U 21066A   26077.35508505  .00007746  00000+0  15190-3 0  9991
2 49044  51.6340  29.5200 0006240 204.1942 155.8754 15.48355497557478
FREGAT DEB              
1 49271U 11037PF  26077.54797889  .00010998  00000+0  15579-1 0  9998
2 49271  51.6481 274.1639 0964079  79.7072 291.0909 12.40481930213793
CSS (WENTIAN)           
1 53239U 22085A   26077.60901874  .00030981  00000+0  35872-3 0  9994
2 53239  41.4670 153.8729 0006034 328.4724  31.5753 15.61143380278940
CSS (MENGTIAN)          
1 54216U 22143A   26077.60901874  .00030981  00000+0  35872-3 0  9995
2 54216  41.4670 153.8729 0006034 328.4724  31.5753 15.61143380278700
TIANZHOU-9              
1 64786U 25149A   26077.60901874  .00030981  00000+0  35872-3 0  9997
2 64786  41.4670 153.8729 0006034 328.4724  31.5753 15.61143380278781
PROGRESS-MS 32          
1 65586U 25204A   26077.35508505  .00007746  00000+0  15190-3 0  9998
2 65586  51.6340  29.5200 0006240 204.1942 155.8754 15.48355497554508
YOTSUBA-KULOVER         
1 65941U 98067XN  26077.04085261  .00215094  00000+0  89413-3 0  9991
2 65941  51.6212  13.8462 0004983 129.9788 230.1654 15.84580231 24820
E-KAGAKU-1              
1 65943U 98067XQ  26077.04754505  .00205727  00000+0  87683-3 0  9996
2 65943  51.6236  13.9111 0005613 132.6674 227.4803 15.84077394 24822
HRC MONOBLOCK CAMERA    
1 66052U 98067XR  26077.14167114  .00042919  00000+0  46454-3 0  9996
2 66052  51.6291  22.8447 0003893 131.3617 228.7713 15.63126590 23718
HTV-X1                  
1 66174U 25241A   26073.34423281  .00013297  00000+0  57208-3 0  9999
2 66174  51.6357  50.7100 0005738 187.3558 172.7336 15.22910164 21661
SZ-21 MODULE            
1 66515U 25246C   26077.53946753  .00028586  00000+0  24029-3 0  9994
2 66515  41.4738 148.8547 0000477 292.1706  67.9085 15.69230343 19465
SHENZHOU-22             
1 66645U 25272A   26077.60901874  .00030981  00000+0  35872-3 0  9990
2 66645  41.4670 153.8729 0006034 328.4724  31.5753 15.61143380278866
SOYUZ-MS 28             
1 66664U 25275A   26077.35508505  .00007746  00000+0  15190-3 0  9994
2 66664  51.6340  29.5200 0006240 204.1942 155.8754 15.48355497557712
